[{"OBJECT_NAME":"GEOSCAN 4 (RS92S4)","OBJECT_ID":"2025-155S","EPOCH":"2026-03-09T21:50:07.724832","MEAN_MOTION":15.30369837,"ECCENTRICITY":0.00070968,"INCLINATION":97.4465,"RA_OF_ASC_NODE":37.7626,"ARG_OF_PERICENTER":154.7045,"MEAN_ANOMALY":205.4544,"EPHEMERIS_TYPE":0,"CLASSIFICATION_TYPE":"U","NORAD_CAT_ID":64892,"ELEMENT_SET_NO":999,"REV_AT_EPOCH":6562,"BSTAR":0.00068609503,"MEAN_MOTION_DOT":0.00020121,"MEAN_MOTION_DDOT":0},{"OBJECT_NAME":"STARLINK-35322","OBJECT_ID":"2025-253P","EPOCH":"2026-03-09T09:52:15.199392","MEAN_MOTION":15.27571257,"ECCENTRICITY":0.00027471,"INCLINATION":42.9972,"RA_OF_ASC_NODE":213.9277,"ARG_OF_PERICENTER":285.6819,"MEAN_ANOMALY":74.3729,"EPHEMERIS_TYPE":0,"CLASSIFICATION_TYPE":"U","NORAD_CAT_ID":66332,"ELEMENT_SET_NO":999,"REV_AT_EPOCH":2020,"BSTAR":0.0011007604,"MEAN_MOTION_DOT":0.00030146,"MEAN_MOTION_DDOT":0}]
